{
  "type": "FeatureCollection",
  "features": [
    {
      "type": "Feature",
      "properties": {
        "norad_id": 36585,
        "name": "GPS BIIF-1  (PRN 25)",
        "group": "gnss",
        "lat": 49.486587114194165,
        "lon": -21.565356216459882,
        "alt_km": 19938.93440207308,
        "timestamp": "2025-12-21T14:40:48.158838+00:00",
        "meta_object_name": "GPS BIIF-1  (PRN 25)",
        "meta_object_id": "2010-022A",
        "meta_epoch": "2025-12-21T05:24:38.676960",
        "meta_mean_motion": 2.00553675,
        "meta_eccentricity": 0.01264546,
        "meta_inclination": 54.2988,
        "meta_ra_of_asc_node": 215.7317,
        "meta_arg_of_pericenter": 65.181,
        "meta_mean_anomaly": 125.5392,
        "meta_ephemeris_type": 0,
        "meta_classification_type": "U",
        "meta_norad_cat_id": 36585,
        "meta_element_set_no": 999,
        "meta_rev_at_epoch": 11402,
        "meta_bstar": 0,
        "meta_mean_motion_dot": 7.7e-07,
        "meta_mean_motion_ddot": 0,
        "tle_line1": "1 36585U 10022A   25355.22544765  .00000077  00000+0  00000+0 0  9999",
        "tle_line2": "2 36585  54.2988 215.7317 0126454  65.1810 125.5392  2.00553675114022"
      },
      "geometry": {
        "type": "Point",
        "coordinates": [
          -21.565356216459882,
          49.486587114194165
        ]
      }
    },
    {
      "type": "Feature",
      "properties": {
        "norad_id": 36828,
        "name": "BEIDOU-2 IGSO-1 (C06)",
        "group": "gnss",
        "lat": -51.41338045105038,
        "lon": 49.09181669111994,
        "alt_km": 35619.84745762835,
        "timestamp": "2025-12-21T14:40:48.158850+00:00",
        "meta_object_name": "BEIDOU-2 IGSO-1 (C06)",
        "meta_object_id": "2010-036A",
        "meta_epoch": "2025-12-20T21:47:26.739168",
        "meta_mean_motion": 1.00282395,
        "meta_eccentricity": 0.0051798,
        "meta_inclination": 54.2882,
        "meta_ra_of_asc_node": 164.5739,
        "meta_arg_of_pericenter": 215.2932,
        "meta_mean_anomaly": 144.6604,
        "meta_ephemeris_type": 0,
        "meta_classification_type": "U",
        "meta_norad_cat_id": 36828,
        "meta_element_set_no": 999,
        "meta_rev_at_epoch": 5631,
        "meta_bstar": 0,
        "meta_mean_motion_dot": -5.5e-07,
        "meta_mean_motion_ddot": 0,
        "tle_line1": "1 36828U 10036A   25354.90794837 -.00000055  00000+0  00000+0 0  9992",
        "tle_line2": "2 36828  54.2882 164.5739 0051798 215.2932 144.6604  1.00282395 56317"
      },
      "geometry": {
        "type": "Point",
        "coordinates": [
          49.09181669111994,
          -51.41338045105038
        ]
      }
    },
    {
      "type": "Feature",
      "properties": {
        "norad_id": 37210,
        "name": "BEIDOU-2 G4 (C04)",
        "group": "gnss",
        "lat": 2.116768118167316,
        "lon": 110.60829214032461,
        "alt_km": 35824.840610280386,
        "timestamp": "2025-12-21T14:40:48.158863+00:00",
        "meta_object_name": "BEIDOU-2 G4 (C04)",
        "meta_object_id": "2010-057A",
        "meta_epoch": "2025-12-21T05:23:59.186976",
        "meta_mean_motion": 1.00272006,
        "meta_eccentricity": 0.00104145,
        "meta_inclination": 3.2045,
        "meta_ra_of_asc_node": 69.9073,
        "meta_arg_of_pericenter": 193.0114,
        "meta_mean_anomaly": 68.2099,
        "meta_ephemeris_type": 0,
        "meta_classification_type": "U",
        "meta_norad_cat_id": 37210,
        "meta_element_set_no": 999,
        "meta_rev_at_epoch": 5550,
        "meta_bstar": 0,
        "meta_mean_motion_dot": -9.1e-07,
        "meta_mean_motion_ddot": 0,
        "tle_line1": "1 37210U 10057A   25355.22499059 -.00000091  00000+0  00000+0 0  9995",
        "tle_line2": "2 37210   3.2045  69.9073 0010414 193.0114  68.2099  1.00272006 55509"
      },
      "geometry": {
        "type": "Point",
        "coordinates": [
          110.60829214032461,
          2.116768118167316
        ]
      }
    },
    {
      "type": "Feature",
      "properties": {
        "norad_id": 37256,
        "name": "BEIDOU-2 IGSO-2 (C07)",
        "group": "gnss",
        "lat": 25.874127163421967,
        "lon": 68.05401808587617,
        "alt_km": 35716.676186232224,
        "timestamp": "2025-12-21T14:40:48.158875+00:00",
        "meta_object_name": "BEIDOU-2 IGSO-2 (C07)",
        "meta_object_id": "2010-068A",
        "meta_epoch": "2025-12-20T17:09:56.640960",
        "meta_mean_motion": 1.0028399,
        "meta_eccentricity": 0.00484742,
        "meta_inclination": 47.8714,
        "meta_ra_of_asc_node": 274.0512,
        "meta_arg_of_pericenter": 216.3556,
        "meta_mean_anomaly": 324.5527,
        "meta_ephemeris_type": 0,
        "meta_classification_type": "U",
        "meta_norad_cat_id": 37256,
        "meta_element_set_no": 999,
        "meta_rev_at_epoch": 5500,
        "meta_bstar": 0,
        "meta_mean_motion_dot": -1.89e-06,
        "meta_mean_motion_ddot": 0,
        "tle_line1": "1 37256U 10068A   25354.71523890 -.00000189  00000+0  00000+0 0  9999",
        "tle_line2": "2 37256  47.8714 274.0512 0048474 216.3556 324.5527  1.00283990 55002"
      },
      "geometry": {
        "type": "Point",
        "coordinates": [
          68.05401808587617,
          25.874127163421967
        ]
      }
    },
    {
      "type": "Feature",
      "properties": {
        "norad_id": 37384,
        "name": "BEIDOU-2 IGSO-3 (C08)",
        "group": "gnss",
        "lat": 14.08286191094375,
        "lon": 49.48610334014736,
        "alt_km": 35933.3624563811,
        "timestamp": "2025-12-21T14:40:48.158887+00:00",
        "meta_object_name": "BEIDOU-2 IGSO-3 (C08)",
        "meta_object_id": "2011-013A",
        "meta_epoch": "2025-12-20T17:53:25.122624",
        "meta_mean_motion": 1.00268991,
        "meta_eccentricity": 0.00353432,
        "meta_inclination": 62.1536,
        "meta_ra_of_asc_node": 41.8403,
        "meta_arg_of_pericenter": 187.7861,
        "meta_mean_anomaly": 235.669,
        "meta_ephemeris_type": 0,
        "meta_classification_type": "U",
        "meta_norad_cat_id": 37384,
        "meta_element_set_no": 999,
        "meta_rev_at_epoch": 5387,
        "meta_bstar": 0,
        "meta_mean_motion_dot": -1.63e-06,
        "meta_mean_motion_ddot": 0,
        "tle_line1": "1 37384U 11013A   25354.74542966 -.00000163  00000+0  00000+0 0  9992",
        "tle_line2": "2 37384  62.1536  41.8403 0035343 187.7861 235.6690  1.00268991 53876"
      },
      "geometry": {
        "type": "Point",
        "coordinates": [
          49.48610334014736,
          14.08286191094375
        ]
      }
    },
    {
      "type": "Feature",
      "properties": {
        "norad_id": 37605,
        "name": "GSAT-8 (GAGAN/PRN 127)",
        "group": "gnss",
        "lat": -1.6360834413624985,
        "lon": 5.8012522836159715,
        "alt_km": 35790.22070478849,
        "timestamp": "2025-12-21T14:40:48.158900+00:00",
        "meta_object_name": "GSAT-8 (GAGAN/PRN 127)",
        "meta_object_id": "2011-022A",
        "meta_epoch": "2025-12-21T03:11:14.180064",
        "meta_mean_motion": 1.00270422,
        "meta_eccentricity": 0.00088018,
        "meta_inclination": 1.6701,
        "meta_ra_of_asc_node": 84.1097,
        "meta_arg_of_pericenter": 186.106,
        "meta_mean_anomaly": 282.6239,
        "meta_ephemeris_type": 0,
        "meta_classification_type": "U",
        "meta_norad_cat_id": 37605,
        "meta_element_set_no": 999,
        "meta_rev_at_epoch": 5143,
        "meta_bstar": 0,
        "meta_mean_motion_dot": 1.07e-06,
        "meta_mean_motion_ddot": 0,
        "tle_line1": "1 37605U 11022A   25355.13280301  .00000107  00000+0  00000+0 0  9991",
        "tle_line2": "2 37605   1.6701  84.1097 0008801 186.1060 282.6239  1.00270422 51439"
      },
      "geometry": {
        "type": "Point",
        "coordinates": [
          5.8012522836159715,
          -1.6360834413624985
        ]
      }
    },
    {
      "type": "Feature",
      "properties": {
        "norad_id": 37763,
        "name": "BEIDOU-2 IGSO-4 (C09)",
        "group": "gnss",
        "lat": -43.85425500168135,
        "lon": 30.469229303965832,
        "alt_km": 35165.71087176737,
        "timestamp": "2025-12-21T14:40:48.158912+00:00",
        "meta_object_name": "BEIDOU-2 IGSO-4 (C09)",
        "meta_object_id": "2011-038A",
        "meta_epoch": "2025-12-17T23:29:21.564384",
        "meta_mean_motion": 1.00281312,
        "meta_eccentricity": 0.01493143,
        "meta_inclination": 54.5836,
        "meta_ra_of_asc_node": 167.2999,
        "meta_arg_of_pericenter": 230.2426,
        "meta_mean_anomaly": 136.1954,
        "meta_ephemeris_type": 0,
        "meta_classification_type": "U",
        "meta_norad_cat_id": 37763,
        "meta_element_set_no": 999,
        "meta_rev_at_epoch": 5283,
        "meta_bstar": 0,
        "meta_mean_motion_dot": 6.5e-07,
        "meta_mean_motion_ddot": 0,
        "tle_line1": "1 37763U 11038A   25351.97872181  .00000065  00000+0  00000+0 0  9997",
        "tle_line2": "2 37763  54.5836 167.2999 0149314 230.2426 136.1954  1.00281312 52838"
      },
      "geometry": {
        "type": "Point",
        "coordinates": [
          30.469229303965832,
          -43.85425500168135
        ]
      }
    }
  ]
}